$$SOE
2461295.500000000, A.D. 2026-Sep-12 00:00:00.0000, -3.574602810960933E+08, -3.531359252472397E+08, 1.741139611597816E+08,
2461302.500000000, A.D. 2026-Sep-19 00:00:00.0000, -3.516894855957872E+08, -3.594647787673104E+08, 1.765157754296668E+08,
2461309.500000000, A.D. 2026-Sep-26 00:00:00.0000, -3.458058989321447E+08, -3.656783793867498E+08, 1.788609836169930E+08,
2461316.500000000, A.D. 2026-Oct-03 00:00:00.0000, -3.398121283289484E+08, -3.717754977641309E+08, 1.811492058752624E+08,
2461323.500000000, A.D. 2026-Oct-10 00:00:00.0000, -3.337107694290381E+08, -3.777549439238486E+08, 1.833800786470102E+08,
2461330.500000000, A.D. 2026-Oct-17 00:00:00.0000, -3.275044063352234E+08, -3.836155660749115E+08, 1.855532541868968E+08,
2461337.500000000, A.D. 2026-Oct-24 00:00:00.0000, -3.211956116927993E+08, -3.893562495618842E+08, 1.876684000945876E+08,
2461344.500000000, A.D. 2026-Oct-31 00:00:00.0000, -3.147869467131041E+08, -3.949759160140604E+08, 1.897251988427456E+08,
2461351.500000000, A.D. 2026-Nov-07 00:00:00.0000, -3.082809607973616E+08, -4.004735226181382E+08, 1.917233472749200E+08,
2461358.500000000, A.D. 2026-Nov-14 00:00:00.0000, -3.016801905582792E+08, -4.058480606262364E+08, 1.936625561272168E+08,
2461365.500000000, A.D. 2026-Nov-21 00:00:00.0000, -2.949871600493839E+08, -4.110985524164937E+08, 1.955425497952724E+08,
2461372.500000000, A.D. 2026-Nov-28 00:00:00.0000, -2.882043831982837E+08, -4.162240501137621E+08, 1.973630661919202E+08,
2461379.500000000, A.D. 2026-Dec-05 00:00:00.0000, -2.813343648229139E+08, -4.212236364267583E+08, 1.991238563101648E+08,
2461386.500000000, A.D. 2026-Dec-12 00:00:00.0000, -2.743796000649732E+08, -4.260964245903549E+08, 2.008246837309379E+08,
2461393.500000000, A.D. 2026-Dec-19 00:00:00.0000, -2.673425741267676E+08, -4.308415574056576E+08, 2.024653242491580E+08,
2461400.500000000, A.D. 2026-Dec-26 00:00:00.0000, -2.602257624525885E+08, -4.354582062450530E+08, 2.040455655598618E+08,
2461407.500000000, A.D. 2027-Jan-02 00:00:00.0000, -2.530316310777098E+08, -4.399455702126564E+08, 2.055652069631794E+08,
2461414.500000000, A.D. 2027-Jan-09 00:00:00.0000, -2.457626370274583E+08, -4.443028754398155E+08, 2.070240590789012E+08,
2461421.500000000, A.D. 2027-Jan-16 00:00:00.0000, -2.384212287310683E+08, -4.485293745067873E+08, 2.084219435680641E+08,
2461428.500000000, A.D. 2027-Jan-23 00:00:00.0000, -2.310098464049157E+08, -4.526243460301066E+08, 2.097586928540661E+08,
2461435.500000000, A.D. 2027-Jan-30 00:00:00.0000, -2.235309222183000E+08, -4.565870944632291E+08, 2.110341498220906E+08,
2461442.500000000, A.D. 2027-Feb-06 00:00:00.0000, -2.159868798180831E+08, -4.604169497701199E+08, 2.122481674855061E+08,
2461449.500000000, A.D. 2027-Feb-13 00:00:00.0000, -2.083801336735386E+08, -4.641132657515882E+08, 2.134006087607923E+08,
2461456.500000000, A.D. 2027-Feb-20 00:00:00.0000, -2.007130906059413E+08, -4.676754178145692E+08, 2.144913465024902E+08,
2461463.500000000, A.D. 2027-Feb-27 00:00:00.0000, -1.929881521070834E+08, -4.711028033974668E+08, 2.155202634068551E+08,
2461470.500000000, A.D. 2027-Mar-06 00:00:00.0000, -1.852077144286852E+08, -4.743948431287126E+08, 2.164872516641931E+08,
2461477.500000000, A.D. 2027-Mar-13 00:00:00.0000, -1.773741680429166E+08, -4.775509806684115E+08, 2.173922126736157E+08,
2461484.500000000, A.D. 2027-Mar-20 00:00:00.0000, -1.694898976028847E+08, -4.805706820668038E+08, 2.182350568547061E+08,
2461491.500000000, A.D. 2027-Mar-27 00:00:00.0000, -1.615572822000909E+08, -4.834534351878870E+08, 2.190157034919258E+08,
2461498.500000000, A.D. 2027-Apr-03 00:00:00.0000, -1.535786957149073E+08, -4.861987492457964E+08, 2.197340805888632E+08,
2461505.500000000, A.D. 2027-Apr-10 00:00:00.0000, -1.455565071980311E+08, -4.888061544310636E+08, 2.203901247286519E+08,
2461512.500000000, A.D. 2027-Apr-17 00:00:00.0000, -1.374930812604316E+08, -4.912752016412971E+08, 2.209837809376972E+08,
2461519.500000000, A.D. 2027-Apr-24 00:00:00.0000, -1.293907783924897E+08, -4.936054623785243E+08, 2.215150025407122E+08,
2461526.500000000, A.D. 2027-May-01 00:00:00.0000, -1.212519549127528E+08, -4.957965287852365E+08, 2.219837509820480E+08,
2461533.500000000, A.D. 2027-May-08 00:00:00.0000, -1.130789622389960E+08, -4.978480130704089E+08, 2.223899956462823E+08,
2461540.500000000, A.D. 2027-May-15 00:00:00.0000, -1.048741469784748E+08, -4.997595453714631E+08, 2.227337138929687E+08,
2461547.500000000, A.D. 2027-May-22 00:00:00.0000, -9.663985340085466E+07, -5.015307726430268E+08, 2.230148912365930E+08,
2461554.500000000, A.D. 2027-May-29 00:00:00.0000, -8.837842493724175E+07, -5.031613600404963E+08, 2.232335212436771E+08,
2461561.500000000, A.D. 2027-Jun-05 00:00:00.0000, -8.009220382014684E+07, -5.046509916667613E+08, 2.233896053219989E+08,
2461568.500000000, A.D. 2027-Jun-12 00:00:00.0000, -7.178353087183483E+07, -5.059993702501202E+08, 2.234831526213804E+08,
2461575.500000000, A.D. 2027-Jun-19 00:00:00.0000, -6.345474577189557E+07, -5.072062166880083E+08, 2.235141799998317E+08,
2461582.500000000, A.D. 2027-Jun-26 00:00:00.0000, -5.510818752427075E+07, -5.082712697175021E+08, 2.234827120079030E+08,
2461589.500000000, A.D. 2027-Jul-03 00:00:00.0000, -4.674619499113411E+07, -5.091942857040776E+08, 2.233887808797403E+08,
2461596.500000000, A.D. 2027-Jul-10 00:00:00.0000, -3.837110745624383E+07, -5.099750385398304E+08, 2.232324265282983E+08,
2461603.500000000, A.D. 2027-Jul-17 00:00:00.0000, -2.998526518091430E+07, -5.106133196901295E+08, 2.230136965385337E+08,
2461610.500000000, A.D. 2027-Jul-24 00:00:00.0000, -2.159100979582524E+07, -5.111089384517261E+08, 2.227326461395868E+08,
2461617.500000000, A.D. 2027-Jul-31 00:00:00.0000, -1.319068411706823E+07, -5.114617221870629E+08, 2.223893381379948E+08,
2461624.500000000, A.D. 2027-Aug-07 00:00:00.0000, -4.786631587177801E+06, -5.116715153832414E+08, 2.219838429248666E+08,
2461631.500000000, A.D. 2027-Aug-14 00:00:00.0000, 3.618802357666037E+06, -5.117381777888396E+08, 2.215162387473828E+08,
2461638.500000000, A.D. 2027-Aug-21 00:00:00.0000, 1.202326761279994E+07, -5.116615849924827E+08, 2.209866119126978E+08,
2461645.500000000, A.D. 2027-Aug-28 00:00:00.0000, 2.042440885425008E+07, -5.114416302401922E+08, 2.203950567079535E+08,
2461652.500000000, A.D. 2027-Sep-04 00:00:00.0000, 2.881986593101813E+07, -5.110782249896989E+08, 2.197416753494998E+08,
2461659.500000000, A.D. 2027-Sep-11 00:00:00.0000, 3.720727380522156E+07, -5.105712988632898E+08, 2.190265780352462E+08,
2461666.500000000, A.D. 2027-Sep-18 00:00:00.0000, 4.558426217339072E+07, -5.099207996493965E+08, 2.182498830345914E+08,
2461673.500000000, A.D. 2027-Sep-25 00:00:00.0000, 5.394845499798844E+07, -5.091266934304602E+08, 2.174117167883357E+08,
2461680.500000000, A.D. 2027-Oct-02 00:00:00.0000, 6.229747002450477E+07, -5.081889648093478E+08, 2.165122140136896E+08,
2461687.500000000, A.D. 2027-Oct-09 00:00:00.0000, 7.062891830701526E+07, -5.071076172386714E+08, 2.155515178117716E+08,
2461694.500000000, A.D. 2027-Oct-16 00:00:00.0000, 7.894040380585697E+07, -5.058826735078422E+08, 2.145297797672973E+08,
2461701.500000000, A.D. 2027-Oct-23 00:00:00.0000, 8.722952331769800E+07, -5.045141763936388E+08, 2.134471600162868E+08,
2461708.500000000, A.D. 2027-Oct-30 00:00:00.0000, 9.549386711288436E+07, -5.030021888641427E+08, 2.123038272974631E+08,
2461715.500000000, A.D. 2027-Nov-06 00:00:00.0000, 1.037310191165216E+08, -5.013467927079390E+08, 2.110999591861661E+08,
2461722.500000000, A.D. 2027-Nov-13 00:00:00.0000, 1.119385546478033E+08, -4.995480876643311E+08, 2.098357425226033E+08,
2461729.500000000, A.D. 2027-Nov-20 00:00:00.0000, 1.201140386201164E+08, -4.976061932398548E+08, 2.085113735889721E+08,
2461736.500000000, A.D. 2027-Nov-27 00:00:00.0000, 1.282550258206711E+08, -4.955212502467077E+08, 2.071270581293846E+08,
2461743.500000000, A.D. 2027-Dec-04 00:00:00.0000, 1.363590612471022E+08, -4.932934211497549E+08, 2.056830114733713E+08,
2461750.500000000, A.D. 2027-Dec-11 00:00:00.0000, 1.444236799512458E+08, -4.909228901867476E+08, 2.041794587352909E+08,
2461757.500000000, A.D. 2027-Dec-18 00:00:00.0000, 1.524464066656433E+08, -4.884098636015952E+08, 2.026166350373756E+08,
2461764.500000000, A.D. 2027-Dec-25 00:00:00.0000, 1.604247553651380E+08, -4.857545699935722E+08, 2.009947857428678E+08,
2461771.500000000, A.D. 2028-Jan-01 00:00:00.0000, 1.683562288052745E+08, -4.829572607684470E+08, 1.993141666970229E+08,
$$EOE